ONEWEB-0094             
1 45450U 20020AC  25298.33236161  .00000102  00000+0  22984-3 0  9993
2 45450  87.9125  52.5337 0001679 100.9873 259.1447 13.17648031275389
ONEWEB-0087             
1 45451U 20020AD  25298.41870262  .00000393  00000+0  10719-2 0  9993
2 45451  87.8851  67.7613 0001421 108.2931 251.8351 13.11418830271814
ONEWEB-0082             
1 45452U 20020AE  25298.41544786  .00000233  00000+0  62145-3 0  9997
2 45452  87.8851  67.7873 0001464 105.4531 254.6759 13.11419523271908
ONEWEB-0050             
1 45453U 20020AF  25298.46510931 -.00075034  00000+0 -79797-2 0  9991
2 45453  88.8610 265.2523 0008325  75.5150 284.7001 14.89472647305439
ONEWEB-0034             
1 45454U 20020AG  25298.43664293  .00000484  00000+0  13298-2 0  9999
2 45454  87.8842  67.8018 0001604  99.5048 260.6261 13.11416750271829
ONEWEB-0060             
1 45455U 20020AH  25298.40779975  .00000536  00000+0  14760-2 0  9994
2 45455  87.8835  67.8308 0001444 149.4532 210.6680 13.11426499271774
ONEWEB-0086             
1 45456U 20020AJ  25298.38661723 -.00000454  00000+0 -13173-2 0  9991
2 45456  87.8841  67.8083 0001928 121.9974 238.1341 13.11416612271836
ONEWEB-0088             
1 45457U 20020AK  25298.36460277  .00000366  00000+0  99662-3 0  9999
2 45457  87.8851  67.7634 0001473  96.6242 263.5053 13.11416415271765
